[{"OBJECT_NAME":"FENGYUN 1C DEB","OBJECT_ID":"1999-025BFG","EPOCH":"2026-04-04T23:16:56.516448","MEAN_MOTION":13.75757065,"ECCENTRICITY":0.01717217,"INCLINATION":99.0056,"RA_OF_ASC_NODE":276.1573,"ARG_OF_PERICENTER":17.6009,"MEAN_ANOMALY":141.3884,"EPHEMERIS_TYPE":0,"CLASSIFICATION_TYPE":"U","NORAD_CAT_ID":31062,"ELEMENT_SET_NO":999,"REV_AT_EPOCH":95790,"BSTAR":0.00024573556,"MEAN_MOTION_DOT":2.23e-6,"MEAN_MOTION_DDOT":0},{"OBJECT_NAME":"FENGYUN 1C DEB","OBJECT_ID":"1999-025BFJ","EPOCH":"2026-04-05T05:18:32.154336","MEAN_MOTION":14.22363957,"ECCENTRICITY":0.02414932,"INCLINATION":98.5889,"RA_OF_ASC_NODE":80.0049,"ARG_OF_PERICENTER":31.8541,"MEAN_ANOMALY":344.166,"EPHEMERIS_TYPE":0,"CLASSIFICATION_TYPE":"U","NORAD_CAT_ID":31064,"ELEMENT_SET_NO":999,"REV_AT_EPOCH":98868,"BSTAR":0.00053058591,"MEAN_MOTION_DOT":1.544e-5,"MEAN_MOTION_DDOT":0},{"OBJECT_NAME":"FENGYUN 1C DEB","OBJECT_ID":"1999-025BFK","EPOCH":"2026-03-30T06:39:05.974272","MEAN_MOTION":14.28692785,"ECCENTRICITY":0.003615,"INCLINATION":98.4571,"RA_OF_ASC_NODE":110.1378,"ARG_OF_PERICENTER":75.0727,"MEAN_ANOMALY":285.4453,"EPHEMERIS_TYPE":0,"CLASSIFICATION_TYPE":"U","NORAD_CAT_ID":31065,"ELEMENT_SET_NO":999,"REV_AT_EPOCH":66113,"BSTAR":0.0010385,"MEAN_MOTION_DOT":2.588e-5,"MEAN_MOTION_DDOT":0},{"OBJECT_NAME":"FENGYUN 1C DEB","OBJECT_ID":"1999-025BFN","EPOCH":"2026-04-04T05:04:32.857824","MEAN_MOTION":14.09306318,"ECCENTRICITY":0.01648939,"INCLINATION":98.6445,"RA_OF_ASC_NODE":76.808,"ARG_OF_PERICENTER":158.8638,"MEAN_ANOMALY":201.9452,"EPHEMERIS_TYPE":0,"CLASSIFICATION_TYPE":"U","NORAD_CAT_ID":31068,"ELEMENT_SET_NO":999,"REV_AT_EPOCH":97939,"BSTAR":0.00016816424,"MEAN_MOTION_DOT":2.91e-6,"MEAN_MOTION_DDOT":0},{"OBJECT_NAME":"FENGYUN 1C DEB","OBJECT_ID":"1999-025BFP","EPOCH":"2026-04-03T07:12:15.894144","MEAN_MOTION":14.58130529,"ECCENTRICITY":0.01032237,"INCLINATION":99.1108,"RA_OF_ASC_NODE":269.017,"ARG_OF_PERICENTER":99.8955,"MEAN_ANOMALY":261.3912,"EPHEMERIS_TYPE":0,"CLASSIFICATION_TYPE":"U","NORAD_CAT_ID":31069,"ELEMENT_SET_NO":999,"REV_AT_EPOCH":307,"BSTAR":0.0013559999,"MEAN_MOTION_DOT":6.67e-5,"MEAN_MOTION_DDOT":0},{"OBJECT_NAME":"FENGYUN 1C DEB","OBJECT_ID":"1999-025BFR","EPOCH":"2026-04-02T12:19:18.049440","MEAN_MOTION":14.53750287,"ECCENTRICITY":0.00538127,"INCLINATION":99.0292,"RA_OF_ASC_NODE":183.8287,"ARG_OF_PERICENTER":308.5819,"MEAN_ANOMALY":51.0561,"EPHEMERIS_TYPE":0,"CLASSIFICATION_TYPE":"U","NORAD_CAT_ID":31071,"ELEMENT_SET_NO":999,"REV_AT_EPOCH":67103,"BSTAR":0.0010365677,"MEAN_MOTION_DOT":4.377e-5,"MEAN_MOTION_DDOT":0},{"OBJECT_NAME":"FENGYUN 1C DEB","OBJECT_ID":"1999-025BFS","EPOCH":"2026-04-05T07:16:56.458272","MEAN_MOTION":14.26011821,"ECCENTRICITY":0.02094253,"INCLINATION":99.3298,"RA_OF_ASC_NODE":113.061,"ARG_OF_PERICENTER":133.2812,"MEAN_ANOMALY":228.605,"EPHEMERIS_TYPE":0,"CLASSIFICATION_TYPE":"U","NORAD_CAT_ID":31072,"ELEMENT_SET_NO":999,"REV_AT_EPOCH":98261,"BSTAR":0.00071034602,"MEAN_MOTION_DOT":2.083e-5,"MEAN_MOTION_DDOT":0},{"OBJECT_NAME":"FENGYUN 1C DEB","OBJECT_ID":"1999-025BFT","EPOCH":"2026-04-05T01:45:08.660160","MEAN_MOTION":14.25489384,"ECCENTRICITY":0.00432214,"INCLINATION":99.2136,"RA_OF_ASC_NODE":315.4701,"ARG_OF_PERICENTER":321.3993,"MEAN_ANOMALY":38.4097,"EPHEMERIS_TYPE":0,"CLASSIFICATION_TYPE":"U","NORAD_CAT_ID":31073,"ELEMENT_SET_NO":999,"REV_AT_EPOCH":98697,"BSTAR":0.001415778,"MEAN_MOTION_DOT":3.33e-5,"MEAN_MOTION_DDOT":0},{"OBJECT_NAME":"FENGYUN 1C DEB","OBJECT_ID":"1999-025BFU","EPOCH":"2026-04-05T05:07:20.963712","MEAN_MOTION":14.1524124,"ECCENTRICITY":0.00861382,"INCLINATION":98.9593,"RA_OF_ASC_NODE":15.6268,"ARG_OF_PERICENTER":303.2018,"MEAN_ANOMALY":56.0918,"EPHEMERIS_TYPE":0,"CLASSIFICATION_TYPE":"U","NORAD_CAT_ID":31074,"ELEMENT_SET_NO":999,"REV_AT_EPOCH":97184,"BSTAR":0.002465728,"MEAN_MOTION_DOT":4.926e-5,"MEAN_MOTION_DDOT":0},{"OBJECT_NAME":"FENGYUN 1C DEB","OBJECT_ID":"1999-025BFY","EPOCH":"2026-04-04T15:40:00.358752","MEAN_MOTION":14.22366984,"ECCENTRICITY":0.0116588,"INCLINATION":98.8481,"RA_OF_ASC_NODE":160.6448,"ARG_OF_PERICENTER":183.4726,"MEAN_ANOMALY":330.1218,"EPHEMERIS_TYPE":0,"CLASSIFICATION_TYPE":"U","NORAD_CAT_ID":31078,"ELEMENT_SET_NO":999,"REV_AT_EPOCH":98497,"BSTAR":0.00072695,"MEAN_MOTION_DOT":1.689e-5,"MEAN_MOTION_DDOT":0},{"OBJECT_NAME":"FENGYUN 1C DEB","OBJECT_ID":"1999-025BGB","EPOCH":"2026-04-05T07:22:46.007616","MEAN_MOTION":14.06324105,"ECCENTRICITY":0.00470035,"INCLINATION":98.7646,"RA_OF_ASC_NODE":113.1843,"ARG_OF_PERICENTER":272.4795,"MEAN_ANOMALY":107.9149,"EPHEMERIS_TYPE":0,"CLASSIFICATION_TYPE":"U","NORAD_CAT_ID":31081,"ELEMENT_SET_NO":999,"REV_AT_EPOCH":98057,"BSTAR":-2.2080755e-5,"MEAN_MOTION_DOT":-8.0e-7,"MEAN_MOTION_DDOT":0},{"OBJECT_NAME":"FENGYUN 1C DEB","OBJECT_ID":"1999-025BGD","EPOCH":"2026-04-05T01:48:25.986528","MEAN_MOTION":14.65772497,"ECCENTRICITY":0.00284002,"INCLINATION":98.649,"RA_OF_ASC_NODE":223.0934,"ARG_OF_PERICENTER":315.5985,"MEAN_ANOMALY":98.707,"EPHEMERIS_TYPE":0,"CLASSIFICATION_TYPE":"U","NORAD_CAT_ID":31083,"ELEMENT_SET_NO":999,"REV_AT_EPOCH":99368,"BSTAR":0.0029377643,"MEAN_MOTION_DOT":0.00016091,"MEAN_MOTION_DDOT":0},{"OBJECT_NAME":"FENGYUN 1C DEB","OBJECT_ID":"1999-025BGF","EPOCH":"2026-04-05T01:41:09.790080","MEAN_MOTION":14.30390466,"ECCENTRICITY":0.00876519,"INCLINATION":98.9791,"RA_OF_ASC_NODE":304.5381,"ARG_OF_PERICENTER":48.5339,"MEAN_ANOMALY":103.0701,"EPHEMERIS_TYPE":0,"CLASSIFICATION_TYPE":"U","NORAD_CAT_ID":31085,"ELEMENT_SET_NO":999,"REV_AT_EPOCH":99336,"BSTAR":0.0001165846,"MEAN_MOTION_DOT":2.69e-6,"MEAN_MOTION_DDOT":0},{"OBJECT_NAME":"FENGYUN 1C DEB","OBJECT_ID":"1999-025BGH","EPOCH":"2026-04-04T07:25:02.080704","MEAN_MOTION":14.61385098,"ECCENTRICITY":0.01687564,"INCLINATION":98.0925,"RA_OF_ASC_NODE":117.3263,"ARG_OF_PERICENTER":298.2596,"MEAN_ANOMALY":124.3849,"EPHEMERIS_TYPE":0,"CLASSIFICATION_TYPE":"U","NORAD_CAT_ID":31087,"ELEMENT_SET_NO":999,"REV_AT_EPOCH":414,"BSTAR":0.0010612386,"MEAN_MOTION_DOT":6.377e-5,"MEAN_MOTION_DDOT":0},{"OBJECT_NAME":"FENGYUN 1C DEB","OBJECT_ID":"1999-025BGJ","EPOCH":"2026-04-04T22:44:00.638304","MEAN_MOTION":14.2969504,"ECCENTRICITY":0.00299794,"INCLINATION":99.398,"RA_OF_ASC_NODE":169.0038,"ARG_OF_PERICENTER":99.2317,"MEAN_ANOMALY":78.0158,"EPHEMERIS_TYPE":0,"CLASSIFICATION_TYPE":"U","NORAD_CAT_ID":31088,"ELEMENT_SET_NO":999,"REV_AT_EPOCH":98166,"BSTAR":0.0020250724,"MEAN_MOTION_DOT":5.172e-5,"MEAN_MOTION_DDOT":0},{"OBJECT_NAME":"FENGYUN 1C DEB","OBJECT_ID":"1999-025BGK","EPOCH":"2026-04-04T20:37:30.980640","MEAN_MOTION":13.88525484,"ECCENTRICITY":0.02041996,"INCLINATION":98.9624,"RA_OF_ASC_NODE":237.4979,"ARG_OF_PERICENTER":264.3253,"MEAN_ANOMALY":252.0857,"EPHEMERIS_TYPE":0,"CLASSIFICATION_TYPE":"U","NORAD_CAT_ID":31089,"ELEMENT_SET_NO":999,"REV_AT_EPOCH":69629,"BSTAR":0.00069103424,"MEAN_MOTION_DOT":9.37e-6,"MEAN_MOTION_DDOT":0}]
