FENGYUN 1C DEB          
1 31062U 99025BFG 26094.97009857  .00000223  00000+0  24574-3 0  9994
2 31062  99.0056 276.1573 0171721  17.6009 141.3884 13.75757065957901
FENGYUN 1C DEB          
1 31064U 99025BFJ 26095.22120549  .00001544  00000+0  53059-3 0  9994
2 31064  98.5889  80.0049 0241493  31.8541 344.1660 14.22363957988684
FENGYUN 1C DEB          
1 31065U 99025BFK 26089.27715248  .00002588  00000+0  10385-2 0  9992
2 31065  98.4571 110.1378 0036150  75.0727 285.4453 14.28692785661135
FENGYUN 1C DEB          
1 31068U 99025BFN 26094.21149141  .00000291  00000+0  16816-3 0  9993
2 31068  98.6445  76.8080 0164893 158.8638 201.9452 14.09306318979390
FENGYUN 1C DEB          
1 31069U 99025BFP 26093.30018396  .00006670  00000+0  13560-2 0  9999
2 31069  99.1108 269.0170 0103223  99.8955 261.3912 14.58130529  3072
FENGYUN 1C DEB          
1 31071U 99025BFR 26092.51340335  .00004377  00000+0  10366-2 0  9998
2 31071  99.0292 183.8287 0053812 308.5819  51.0561 14.53750287671032
FENGYUN 1C DEB          
1 31072U 99025BFS 26095.30343123  .00002083  00000+0  71035-3 0  9990
2 31072  99.3298 113.0610 0209425 133.2812 228.6050 14.26011821982614
FENGYUN 1C DEB          
1 31073U 99025BFT 26095.07301690  .00003330  00000+0  14158-2 0  9996
2 31073  99.2136 315.4701 0043221 321.3993  38.4097 14.25489384986977
FENGYUN 1C DEB          
1 31074U 99025BFU 26095.21343708  .00004926  00000+0  24657-2 0  9996
2 31074  98.9593  15.6268 0086138 303.2018  56.0918 14.15241240971843
FENGYUN 1C DEB          
1 31078U 99025BFY 26094.65278193  .00001689  00000+0  72695-3 0  9991
2 31078  98.8481 160.6448 0116588 183.4726 330.1218 14.22366984984978
FENGYUN 1C DEB          
1 31081U 99025BGB 26095.30747694 -.00000080  00000+0 -22081-4 0  9996
2 31081  98.7646 113.1843 0047003 272.4795 107.9149 14.06324105980572
FENGYUN 1C DEB          
1 31083U 99025BGD 26095.07530077  .00016091  00000+0  29378-2 0  9998
2 31083  98.6490 223.0934 0028400 315.5985  98.7070 14.65772497993684
FENGYUN 1C DEB          
1 31085U 99025BGF 26095.07025220  .00000269  00000+0  11658-3 0  9992
2 31085  98.9791 304.5381 0087651  48.5339 103.0701 14.30390466993363
FENGYUN 1C DEB          
1 31087U 99025BGH 26094.30905186  .00006377  00000+0  10612-2 0  9991
2 31087  98.0925 117.3263 0168756 298.2596 124.3849 14.61385098  4146
FENGYUN 1C DEB          
1 31088U 99025BGJ 26094.94722961  .00005172  00000+0  20251-2 0  9992
2 31088  99.3980 169.0038 0029979  99.2317  78.0158 14.29695040981663
FENGYUN 1C DEB          
1 31089U 99025BGK 26094.85938635  .00000937  00000+0  69103-3 0  9994
2 31089  98.9624 237.4979 0204199 264.3253 252.0857 13.88525484696291
